STARLINK-37963          
1 69709U 26147F   26197.05161411  .00335137  00000+0  16609-2 0  9990
2 69709  97.2820 233.4970 0000925 159.0836 201.0470 15.81118228  3999
STARLINK-37969          
1 69710U 26147G   26197.05086168  .00250250  00000+0  12628-2 0  9996
2 69710  97.2823 233.4991 0001557 129.2781 230.8626 15.80942038  3993
STARLINK-37956          
1 69711U 26147H   26197.05010778  .00190985  00000+0  97096-3 0  9992
2 69711  97.2825 233.5003 0002672 127.4074 232.7438 15.80930616  3996
STARLINK-38043          
1 69712U 26147J   26197.04935637  .00216458  00000+0  10994-2 0  9997
2 69712  97.2811 233.4992 0001668 127.6390 232.5030 15.80887655  3995
STARLINK-38020          
1 69713U 26147K   26197.04860652  .00180492  00000+0  91956-3 0  9998
2 69713  97.2825 233.5016 0001970 127.4196 232.7252 15.80913022  3993
STARLINK-38059          
1 69714U 26147L   26197.04785262  .00189788  00000+0  96491-3 0  9998
2 69714  97.2826 233.5034 0003242 137.1623 222.9898 15.80931126  3994
STARLINK-38061          
1 69715U 26147M   26197.04710316  .00184702  00000+0  94036-3 0  9991
2 69715  97.2830 233.5047 0001567 122.9852 237.1567 15.80917545  3998
STARLINK-38060          
1 69716U 26147N   26197.04635232  .00177887  00000+0  90669-3 0  9999
2 69716  97.2827 233.5055 0001219 115.3015 244.8380 15.80911040  3997
STARLINK-38040          
1 69717U 26147P   26197.04560115  .00308589  00000+0  15354-2 0  9999
2 69717  97.2816 233.5052 0001031 154.1217 206.0103 15.81099813  3999
STARLINK-37989          
1 69718U 26147Q   26197.25002315 -.00054282  00000+0 -28410-3 0  9994
2 69718  97.2825 233.7242 0001249  83.8842   3.0705 15.80840095  4007
STARLINK-38039          
1 69719U 26147R   26197.04409744  .00290206  00000+0  14565-2 0  9990
2 69719  97.2826 233.5075 0001066 135.8086 224.3268 15.80958408  3993
STARLINK-38003          
1 69720U 26147S   26197.04334564  .00182675  00000+0  92936-3 0  9998
2 69720  97.2826 233.5082 0003704 121.1060 239.0573 15.80933235  3997
STARLINK-38014          
1 69721U 26147T   26197.04259452  .00170149  00000+0  86794-3 0  9999
2 69721  97.2825 233.5090 0001882 114.6406 245.5059 15.80913089  3998
STARLINK-37915          
1 69722U 26147U   26197.10514571  .00251051  00000+0  12748-2 0  9992
2 69722  97.2820 233.5758 0001063  97.0444 263.0945 15.80802381  4006
STARLINK-38007          
1 69723U 26147V   26197.25002315 -.00065343  00000+0 -34243-3 0  9991
2 69723  97.2824 233.7248 0001212  88.9597   1.4837 15.80849113  4009
STARLINK-38008          
1 69724U 26147W   26197.04033945  .00331699  00000+0  16440-2 0  9998
2 69724  97.2829 233.5128 0001944 132.5495 227.5938 15.81125730  3998
STARLINK-38021          
1 69725U 26147X   26197.10288965  .00220938  00000+0  11264-2 0  9992
2 69725  97.2829 233.5807 0002031 109.1478 251.0011 15.80792703  4008
STARLINK-38015          
1 69726U 26147Y   26197.10213920  .00247183  00000+0  12559-2 0  9991
2 69726  97.2826 233.5818 0001268 100.8246 259.3165 15.80800028  4001
STARLINK-38010          
1 69727U 26147Z   26197.06465470  .00113080  00000+0  74793-3 0  9993
2 69727  97.2829 233.4791 0001440  44.0461 316.0919 15.75223200  3994
SXM-11                  
1 69728U 26148A   26197.14114418  .00000000  00000+0  00000+0 0  9990
2 69728   0.1094 265.2326 0001935 179.0008 140.0475  1.00269654   337
HAIYANG-2E              
1 69737U 26149A   26194.63575019 -.00000091  00000+0 -45287-4 0  9993
2 69737  99.3454 201.5813 0001579  93.5996 266.5337 13.79314717  1614
CZ-4B R/B               
1 69738U 26149B   26194.65226973  .00000049  00000+0  33597-4 0  9990
2 69738  99.3217 202.5607 0198196 334.5310  24.6204 14.30067210  1914
STARLINK-38033          
1 69739U 26150A   26197.28728840  .00158509  00000+0  81150-3 0  9997
2 69739  97.2843  35.7115 0001185  69.3178 290.8217 15.80865267  3493
STARLINK-38076          
1 69740U 26150B   26197.11929269  .00121868  00000+0  80617-3 0  9994
2 69740  97.2832  35.4801 0002855  43.7898 316.3593 15.75190961  3466
STARLINK-38074          
1 69741U 26150C   26197.28470982  .00193070  00000+0  98454-3 0  9998
2 69741  97.2836  35.7146 0001550  75.1213 285.0227 15.80860580  3493
STARLINK-38041          
1 69742U 26150D   26195.51157686  .00197630  00000+0  10043-2 0  9999
2 69742  97.2822  33.8415 0001394 105.4157 254.7266 15.80925154  3212
STARLINK-38087          
1 69743U 26150E   26197.25002315 -.01317371  00000+0 -76777-2 0  9996
2 69743  97.2843  35.6824 0002004  85.1966  86.2151 15.81210776  3467
STARLINK-38078          
1 69744U 26150F   26197.09253934  .00175884  00000+0  90096-3 0  9993
2 69744  97.2829  35.5165 0001312 115.7902 244.3502 15.80806887  3460
STARLINK-38047          
1 69745U 26150G   26195.50921554  .00139688  00000+0  71675-3 0  9992
2 69745  97.2820  33.8437 0003666 125.3440 234.8171 15.80859566  3214
STARLINK-38046          
1 69746U 26150H   26197.08982089  .00174715  00000+0  89515-3 0  9990
2 69746  97.2833  35.5211 0001788  81.3402 278.8068 15.80805019  3464
